NORAD_CAT_ID,OBJECT_NAME,OBJECT_TYPE,EPOCH,MEAN_MOTION,ECCENTRICITY,INCLINATION,RA_OF_ASC_NODE,ARG_OF_PERICENTER,MEAN_ANOMALY,BSTAR,MEAN_MOTION_DOT,MEAN_MOTION_DDOT,TLE_LINE0,TLE_LINE1,TLE_LINE2,SEMIMAJOR_AXIS,PERIOD,APOGEE,PERIGEE,DECAYED
51877.0,STARLINK-3556,PAYLOAD,2022-11-14 12:32:09,15.08827237,0.0001761999999999,53.2193,36.2625,48.5221,311.5922,-4.3283e-05,-9.77e-06,0.0,0 STARLINK-3556,1 51877U 22022AB  22318.52233427 -.00000977  00000-0 -43283-4 0  9999,2 51877  53.2193  36.2625 0001762  48.5221 311.5922 15.08827237 40409,6917.919,95.438,541.003,538.565,0.0
51877.0,STARLINK-3556,PAYLOAD,2022-11-15 06:01:24,15.088250699999998,0.0001616,53.2198,32.9927,45.5988,314.5136,2.67e-05,1.37e-06,0.0,0 STARLINK-3556,1 51877U 22022AB  22319.25097361  .00000137  00000-0  26700-4 0  9996,2 51877  53.2198  32.9927 0001616  45.5988 314.5136 15.08825070 40512,6917.926,95.438,540.909,538.673,0.0
51877.0,STARLINK-3556,PAYLOAD,2022-11-15 12:22:56,15.08829314,0.0001729,53.2194,31.8032,43.1742,316.9386,5.526100000000001e-05,5.91e-06,0.0,0 STARLINK-3556,1 51877U 22022AB  22319.51593289  .00000591  00000-0  55261-4 0  9993,2 51877  53.2194  31.8032 0001729  43.1742 316.9386 15.08829314 40552,6917.913000000001,95.438,540.974,538.582,0.0
51877.0,STARLINK-3556,PAYLOAD,2022-11-15 13:58:19,15.08830994,0.0001742,53.2195,31.5054,43.4633,316.6496,7.6694e-05,9.32e-06,0.0,0 STARLINK-3556,1 51877U 22022AB  22319.58217204  .00000932  00000-0  76694-4 0  9992,2 51877  53.2195  31.5054 0001742  43.4633 316.6496 15.08830994 40567,6917.908,95.438,540.9780000000002,538.568,0.0
51877.0,STARLINK-3556,PAYLOAD,2022-11-15 23:30:38,15.08832946,0.0001761,53.2192,29.7215,42.2131,317.8997,0.00019699,2.848e-05,0.0,0 STARLINK-3556,1 51877U 22022AB  22319.97960994  .00002848  00000-0  19699-3 0  9995,2 51877  53.2192  29.7215 0001761  42.2131 317.8997 15.08832946 40628,6917.901999999999,95.438,540.985,538.549,0.0
51877.0,STARLINK-3556,PAYLOAD,2022-11-16 10:38:20,15.08834993,0.0001629999999999,53.2192,27.6392,45.9724,314.1402,8.774399999999999e-05,1.109e-05,0.0,0 STARLINK-3556,1 51877U 22022AB  22320.44329460  .00001109  00000-0  87744-4 0  9992,2 51877  53.2192  27.6392 0001630  45.9724 314.1402 15.08834993 40696,6917.896,95.438,540.888,538.633,0.0
51877.0,STARLINK-3556,PAYLOAD,2022-11-17 08:53:44,15.08842867,0.000155,53.2185,23.4745,47.5208,312.5915,1.8316e-05,4e-08,0.0,0 STARLINK-3556,1 51877U 22022AB  22321.37065126  .00000004  00000-0  18316-4 0  9993,2 51877  53.2185  23.4745 0001550  47.5208 312.5915 15.08842867 40836,6917.871999999999,95.437,540.809,538.664,0.0
51877.0,STARLINK-3556,PAYLOAD,2022-11-17 10:29:07,15.08843766,0.0001643,53.2184,23.1774,47.0414,313.0715,3.7607e-05,3.11e-06,0.0,0 STARLINK-3556,1 51877U 22022AB  22321.43689044  .00000311  00000-0  37607-4 0  9996,2 51877  53.2184  23.1774 0001643  47.0414 313.0715 15.08843766 40845,6917.869000000002,95.437,540.87,538.597,0.0
51877.0,STARLINK-3556,PAYLOAD,2022-11-18 10:19:54,15.08840579,0.0001876,53.2189,18.7184,40.6921,319.4211,6.5288e-05,7.51e-06,0.0,0 STARLINK-3556,1 51877U 22022AB  22322.43049015  .00000751  00000-0  65288-4 0  9999,2 51877  53.2189  18.7184 0001876  40.6921 319.4211 15.08840579 40991,6917.879,95.438,541.0409999999998,538.446,0.0
51877.0,STARLINK-3556,PAYLOAD,2022-11-19 03:49:08,15.08843017,0.0002021,53.2188,15.4482,43.4258,316.6893,6.9236e-05,8.14e-06,0.0,0 STARLINK-3556,1 51877U 22022AB  22323.15912791  .00000814  00000-0  69236-4 0  9996,2 51877  53.2188  15.4482 0002021  43.4258 316.6893 15.08843017 41101,6917.871,95.437,541.134,538.3380000000002,0.0
51877.0,STARLINK-3556,PAYLOAD,2022-11-19 10:10:41,15.0884259,0.0002044,53.2188,14.2588,43.6092,316.5062,6.0927e-05,6.82e-06,0.0,0 STARLINK-3556,1 51877U 22022AB  22323.42408802  .00000682  00000-0  60927-4 0  9990,2 51877  53.2188  14.2588 0002044  43.6092 316.5062 15.08842590 41144,6917.871999999999,95.437,541.151,538.323,0.0
51877.0,STARLINK-3556,PAYLOAD,2022-11-20 03:39:56,15.08834356,0.0002149,53.219,10.9886,42.3781,317.7376,3.3484e-06,-2.35e-06,0.0,0 STARLINK-3556,1 51877U 22022AB  22324.15273366 -.00000235  00000-0  33484-5 0  9990,2 51877  53.2190  10.9886 0002149  42.3781 317.7376 15.08834356 41252,6917.898,95.438,541.249,538.276,0.0
51877.0,STARLINK-3556,PAYLOAD,2022-11-20 10:01:28,15.08833778,0.0002162,53.2191,9.7994,41.7644,318.3513,-2.3382e-06,-3.25e-06,0.0,0 STARLINK-3556,1 51877U 22022AB  22324.41769550 -.00000325  00000-0 -23382-5 0  9991,2 51877  53.2191   9.7994 0002162  41.7644 318.3513 15.08833778 41296,6917.899,95.438,541.26,538.269,0.0
51877.0,STARLINK-3556,PAYLOAD,2022-11-20 19:33:47,15.08835099,0.0002202,53.2188,8.0157,40.533,319.5826,-3.8293e-05,-8.98e-06,0.0,0 STARLINK-3556,1 51877U 22022AB  22324.81513632 -.00000898  00000-0 -38293-4 0  9994,2 51877  53.2188   8.0157 0002202  40.5330 319.5826 15.08835099 41354,6917.895,95.438,541.284,538.237,0.0
51877.0,STARLINK-3556,PAYLOAD,2022-11-21 08:16:52,15.08838847,0.0002216,53.2191,5.6372,41.261,318.8549,4.0004e-05,3.48e-06,0.0,0 STARLINK-3556,1 51877U 22022AB  22325.34505336  .00000348  00000-0  40004-4 0  9996,2 51877  53.2191   5.6372 0002216  41.2610 318.8549 15.08838847 41431,6917.884,95.438,541.2819999999998,538.216,0.0
51877.0,STARLINK-3556,PAYLOAD,2022-11-22 08:07:39,15.08837192,0.0002117,53.2198,1.177,47.0838,313.0331,5.0784e-05,5.2e-06,0.0,0 STARLINK-3556,1 51877U 22022AB  22326.33865680  .00000520  00000-0  50784-4 0  9995,2 51877  53.2198   1.1770 0002117  47.0838 313.0331 15.08837192 41581,6917.889,95.438,541.2180000000002,538.289,0.0
51877.0,STARLINK-3556,PAYLOAD,2022-11-22 19:15:21,15.08839901,0.0002147,53.2186,359.0945,41.4872,318.6282,0.00011532,1.548e-05,0.0,0 STARLINK-3556,1 51877U 22022AB  22326.80233348  .00001548  00000-0  11532-3 0  9995,2 51877  53.2186 359.0945 0002147  41.4872 318.6282 15.08839901 41650,6917.880999999999,95.438,541.231,538.26,0.0
51877.0,STARLINK-3556,PAYLOAD,2022-11-23 01:36:54,15.0884483,0.0002343,53.2196,357.9058,51.3595,308.7607,2.0283e-05,3.4e-07,0.0,0 STARLINK-3556,1 51877U 22022AB  22327.06729454  .00000034  00000-0  20283-4 0  9995,2 51877  53.2196 357.9058 0002343  51.3595 308.7607 15.08844830 41695,6917.866,95.437,541.351,538.11,0.0
51877.0,STARLINK-3556,PAYLOAD,2022-11-23 11:09:14,15.08826378,0.0002477,53.2196,356.125,36.9867,323.1295,-2.1284e-05,-6.27e-06,0.0,0 STARLINK-3556,1 51877U 22022AB  22327.46474901 -.00000627  00000-0 -21284-4 0  9995,2 51877  53.2196 356.1250 0002477  36.9867 323.1295 15.08826378 41757,6917.922,95.438,541.501,538.073,0.0
51877.0,STARLINK-3556,PAYLOAD,2022-11-24 11:00:00,15.08840013,0.0002312,53.219,351.6605,41.7258,318.391,2.9437e-05,1.8e-06,0.0,0 STARLINK-3556,1 51877U 22022AB  22328.45834284  .00000180  00000-0  29437-4 0  9999,2 51877  53.2190 351.6605 0002312  41.7258 318.3910 15.08840013 41900,6917.88,95.438,541.345,538.146,0.0
51877.0,STARLINK-3556,PAYLOAD,2022-11-24 18:56:56,15.08844879,0.0002415,53.2191,350.1740000000001,42.4924,317.6255,6.3213e-05,7.18e-06,0.0,0 STARLINK-3556,1 51877U 22022AB  22328.78953900  .00000718  00000-0  63213-4 0  9999,2 51877  53.2191 350.1740 0002415  42.4924 317.6255 15.08844879 41950,6917.865,95.437,541.401,538.06,0.0
51877.0,STARLINK-3556,PAYLOAD,2022-11-25 07:40:00,15.08848975,0.0002363,53.2188,347.7944,42.3513,317.7661,0.0001452,2.024e-05,0.0,0 STARLINK-3556,1 51877U 22022AB  22329.31945250  .00002024  00000-0  14520-3 0  9996,2 51877  53.2188 347.7944 0002363  42.3513 317.7661 15.08848975 42032,6917.853,95.437,541.3530000000002,538.0830000000002,0.0
51877.0,STARLINK-3556,PAYLOAD,2022-11-25 18:47:42,15.08848943,0.0002375,53.2186,345.713,43.2575,316.8604,0.00023904,3.519e-05,0.0,0 STARLINK-3556,1 51877U 22022AB  22329.78313016  .00003519  00000-0  23904-3 0  9992,2 51877  53.2186 345.7130 0002375  43.2575 316.8604 15.08848943 42106,6917.853,95.437,541.361,538.075,0.0
51877.0,STARLINK-3556,PAYLOAD,2022-11-26 10:41:34,15.088462300000002,0.0002374,53.2195,342.7404,41.784,318.3333,4.1944e-05,3.79e-06,0.0,0 STARLINK-3556,1 51877U 22022AB  22330.44553526  .00000379  00000-0  41944-4 0  9995,2 51877  53.2195 342.7404 0002374  41.7840 318.3333 15.08846230 42208,6917.861,95.437,541.369,538.0840000000002,0.0
51877.0,STARLINK-3556,PAYLOAD,2022-11-27 07:21:35,15.08843,0.0002365,53.2198,338.8742,43.1978,316.9199,-7.9048e-05,-1.546e-05,0.0,0 STARLINK-3556,1 51877U 22022AB  22331.30665619 -.00001546  00000-0 -79048-4 0  9993,2 51877  53.2198 338.8742 0002365  43.1978 316.9199 15.08843000 42330,6917.871,95.437,541.372,538.1,0.0
51877.0,STARLINK-3556,PAYLOAD,2022-11-28 07:12:22,15.08833795,0.0002373,53.2196,334.4144,43.3059,316.812,-2.3021e-05,-6.55e-06,0.0,0 STARLINK-3556,1 51877U 22022AB  22332.30026237 -.00000655  00000-0 -23021-4 0  9991,2 51877  53.2196 334.4144 0002373  43.3059 316.8120 15.08833795 42486,6917.899,95.438,541.406,538.123,0.0
51877.0,STARLINK-3556,PAYLOAD,2022-11-28 16:44:41,15.08837241,0.0002382,53.2194,332.63,42.7686,317.3491,2.6312e-05,1.3e-06,0.0,0 STARLINK-3556,1 51877U 22022AB  22332.69769998  .00000130  00000-0  26312-4 0  9993,2 51877  53.2194 332.6300 0002382  42.7686 317.3491 15.08837241 42541,6917.889,95.438,541.4019999999998,538.106,0.0
51877.0,STARLINK-3556,PAYLOAD,2022-11-29 00:41:36,15.08839374,0.000233,53.2183,331.1423,40.0777,320.0387,0.00012397,1.685e-05,0.0,0 STARLINK-3556,1 51877U 22022AB  22333.02889485  .00001685  00000-0  12397-3 0  9998,2 51877  53.2183 331.1423 0002330  40.0777 320.0387 15.08839374 42593,6917.882,95.438,541.359,538.135,0.0
51877.0,STARLINK-3556,PAYLOAD,2022-11-29 10:13:55,15.08838898,0.0002345,53.2189,329.3591,41.4529,318.6641,0.00011081,1.476e-05,0.0,0 STARLINK-3556,1 51877U 22022AB  22333.42633666  .00001476  00000-0  11081-3 0  9997,2 51877  53.2189 329.3591 0002345  41.4529 318.6641 15.08838898 42653,6917.884,95.438,541.371,538.127,0.0
